{"type": "FeatureCollection", "features": [{"type": "Feature", "geometry": {"type": "Point", "coordinates": [-73.987495, 40.75529]}, "properties": {"name": "Times Sq-42 St", "lines": "1 2 3", "borough": "M"}}, {"type": "Feature", "geometry": {"type": "Point", "coordinates": [-74.178217, 40.54046]}, "properties": {"name": "Annadale", "lines": "SIR", "borough": "SI"}}, {"type": "Feature", "geometry": {"type": "Point", "coordinates": [-73.955827, 40.680596]}, "properties": {"name": "Franklin Av", "lines": "S", "borough": "Bk"}}, {"type": "Feature", "geometry": {"type": "Point", "coordinates": [-73.902447, 40.663515]}, "properties": {"name": "Junius St", "lines": "3", "borough": "Bk"}}, {"type": "Feature", "geometry": {"type": "Point", "coordinates": [-73.889601, 40.711396]}, "properties": {"name": "Middle Village-Metropolitan Av", "lines": "M", "borough": "Q"}}, {"type": "Feature", "geometry": {"type": "Point", "coordinates": [-74.00191, 40.755882]}, "properties": {"name": "34 St-Hudson Yards", "lines": "7", "borough": "M"}}, {"type": "Feature", "geometry": {"type": "Point", "coordinates": [-73.912549, 40.744149]}, "properties": {"name": "52 St", "lines": "7", "borough": "Q"}}, {"type": "Feature", "geometry": {"type": "Point", "coordinates": [-73.904098, 40.812118]}, "properties": {"name": "E 149 St", "lines": "6", "borough": "Bx"}}, {"type": "Feature", "geometry": {"type": "Point", "coordinates": [-73.935657, 40.697207]}, "properties": {"name": "Myrtle Av", "lines": "M J Z", "borough": "Bk"}}, {"type": "Feature", "geometry": {"type": "Point", "coordinates": [-73.990173, 40.713715]}, "properties": {"name": "East Broadway", "lines": "F", "borough": "M"}}, {"type": "Feature", "geometry": {"type": "Point", "coordinates": [-73.974197, 40.61514]}, "properties": {"name": "Avenue N", "lines": "F", "borough": "Bk"}}, {"type": "Feature", "geometry": {"type": "Point", "coordinates": [-73.985065, 40.690545]}, "properties": {"name": "Hoyt St", "lines": "2 3", "borough": "Bk"}}, {"type": "Feature", "geometry": {"type": "Point", "coordinates": [-73.903077, 40.704423]}, "properties": {"name": "Forest Av", "lines": "M", "borough": "Q"}}, {"type": "Feature", "geometry": {"type": "Point", "coordinates": [-74.074835, 40.636949]}, "properties": {"name": "Tompkinsville", "lines": "SIR", "borough": "SI"}}, {"type": "Feature", "geometry": {"type": "Point", "coordinates": [-74.02551, 40.629742]}, "properties": {"name": "77 St", "lines": "R", "borough": "Bk"}}, {"type": "Feature", "geometry": {"type": "Point", "coordinates": [-74.008585, 40.714111]}, "properties": {"name": "Chambers St", "lines": "A C", "borough": "M"}}, {"type": "Feature", "geometry": {"type": "Point", "coordinates": [-73.842952, 40.839892]}, "properties": {"name": "Westchester Sq-E Tremont Av", "lines": "6", "borough": "Bx"}}, {"type": "Feature", "geometry": {"type": "Point", "coordinates": [-73.9134, 40.839306]}, "properties": {"name": "170 St", "lines": "B D", "borough": "Bx"}}, {"type": "Feature", "geometry": {"type": "Point", "coordinates": [-73.967967, 40.762526]}, "properties": {"name": "59 St", "lines": "4 5 6", "borough": "M"}}, {"type": "Feature", "geometry": {"type": "Point", "coordinates": [-73.90177, 40.819585]}, "properties": {"name": "Prospect Av", "lines": "2 5", "borough": "Bx"}}, {"type": "Feature", "geometry": {"type": "Point", "coordinates": [-73.974574, 40.581011]}, "properties": {"name": "Neptune Av", "lines": "F", "borough": "Bk"}}, {"type": "Feature", "geometry": {"type": "Point", "coordinates": [-73.979137, 40.597473]}, "properties": {"name": "Avenue U", "lines": "N", "borough": "Bk"}}, {"type": "Feature", "geometry": {"type": "Point", "coordinates": [-73.874516, 40.829521]}, "properties": {"name": "Morrison Av-Soundview", "lines": "6", "borough": "Bx"}}, {"type": "Feature", "geometry": {"type": "Point", "coordinates": [-73.975264, 40.620769]}, "properties": {"name": "Bay Pkwy", "lines": "F", "borough": "Bk"}}, {"type": "Feature", "geometry": {"type": "Point", "coordinates": [-73.973347, 40.764811]}, "properties": {"name": "5 Av/59 St", "lines": "N R W", "borough": "M"}}, {"type": "Feature", "geometry": {"type": "Point", "coordinates": [-73.986829, 40.597704]}, "properties": {"name": "25 Av", "lines": "D", "borough": "Bk"}}, {"type": "Feature", "geometry": {"type": "Point", "coordinates": [-73.941617, 40.798629]}, "properties": {"name": "116 St", "lines": "6", "borough": "M"}}, {"type": "Feature", "geometry": {"type": "Point", "coordinates": [-73.827559, 40.583209]}, "properties": {"name": "Beach 105 St", "lines": "A S", "borough": "Q"}}, {"type": "Feature", "geometry": {"type": "Point", "coordinates": [-73.820574, 40.709179]}, "properties": {"name": "Briarwood", "lines": "E F", "borough": "Q"}}, {"type": "Feature", "geometry": {"type": "Point", "coordinates": [-73.989344, 40.741303]}, "properties": {"name": "23 St", "lines": "R W", "borough": "M"}}, {"type": "Feature", "geometry": {"type": "Point", "coordinates": [-73.988691, 40.745494]}, "properties": {"name": "28 St", "lines": "R W", "borough": "M"}}, {"type": "Feature", "geometry": {"type": "Point", "coordinates": [-73.95036, 40.826551]}, "properties": {"name": "145 St", "lines": "1", "borough": "M"}}, {"type": "Feature", "geometry": {"type": "Point", "coordinates": [-73.927271, 40.865491]}, "properties": {"name": "Dyckman St", "lines": "A", "borough": "M"}}, {"type": "Feature", "geometry": {"type": "Point", "coordinates": [-73.957757, 40.708359]}, "properties": {"name": "Marcy Av", "lines": "M J Z", "borough": "Bk"}}, {"type": "Feature", "geometry": {"type": "Point", "coordinates": [-73.948916, 40.742216]}, "properties": {"name": "Hunters Point Av", "lines": "7", "borough": "Q"}}, {"type": "Feature", "geometry": {"type": "Point", "coordinates": [-73.954882, 40.805085]}, "properties": {"name": "116 St", "lines": "C B", "borough": "M"}}, {"type": "Feature", "geometry": {"type": "Point", "coordinates": [-73.987342, 40.692338]}, "properties": {"name": "Jay St-MetroTech", "lines": "A C F", "borough": "Bk"}}, {"type": "Feature", "geometry": {"type": "Point", "coordinates": [-74.010006, 40.648939]}, "properties": {"name": "45 St", "lines": "R", "borough": "Bk"}}, {"type": "Feature", "geometry": {"type": "Point", "coordinates": [-73.896548, 40.674542]}, "properties": {"name": "Liberty Av", "lines": "C", "borough": "Bk"}}, {"type": "Feature", "geometry": {"type": "Point", "coordinates": [-73.96007, 40.688873]}, "properties": {"name": "Classon Av", "lines": "G", "borough": "Bk"}}, {"type": "Feature", "geometry": {"type": "Point", "coordinates": [-73.963891, 40.640927]}, "properties": {"name": "Cortelyou Rd", "lines": "Q", "borough": "Bk"}}, {"type": "Feature", "geometry": {"type": "Point", "coordinates": [-73.928781, 40.752039]}, "properties": {"name": "36 St", "lines": "M R", "borough": "Q"}}, {"type": "Feature", "geometry": {"type": "Point", "coordinates": [-74.009509, 40.710368]}, "properties": {"name": "Fulton St", "lines": "4 5", "borough": "M"}}, {"type": "Feature", "geometry": {"type": "Point", "coordinates": [-73.868457, 40.848828]}, "properties": {"name": "Bronx Park East", "lines": "2 5", "borough": "Bx"}}, {"type": "Feature", "geometry": {"type": "Point", "coordinates": [-73.846384, 40.869526]}, "properties": {"name": "Gun Hill Rd", "lines": "5", "borough": "Bx"}}, {"type": "Feature", "geometry": {"type": "Point", "coordinates": [-74.00061, 40.613501]}, "properties": {"name": "79 St", "lines": "D", "borough": "Bk"}}, {"type": "Feature", "geometry": {"type": "Point", "coordinates": [-73.951418, 40.712792]}, "properties": {"name": "Metropolitan Av", "lines": "G", "borough": "Bk"}}, {"type": "Feature", "geometry": {"type": "Point", "coordinates": [-73.937243, 40.748973]}, "properties": {"name": "Queens Plaza", "lines": "E F R", "borough": "Q"}}, {"type": "Feature", "geometry": {"type": "Point", "coordinates": [-73.897174, 40.86776]}, "properties": {"name": "Kingsbridge Rd", "lines": "4", "borough": "Bx"}}, {"type": "Feature", "geometry": {"type": "Point", "coordinates": [-74.001775, 40.719527]}, "properties": {"name": "Canal St", "lines": "R W", "borough": "M"}}, {"type": "Feature", "geometry": {"type": "Point", "coordinates": [-73.929412, 40.855225]}, "properties": {"name": "191 St", "lines": "1", "borough": "M"}}, {"type": "Feature", "geometry": {"type": "Point", "coordinates": [-73.852719, 40.726523]}, "properties": {"name": "67 Av", "lines": "M R", "borough": "Q"}}, {"type": "Feature", "geometry": {"type": "Point", "coordinates": [-73.905316, 40.678334]}, "properties": {"name": "Broadway Junction", "lines": "A C", "borough": "Bk"}}, {"type": "Feature", "geometry": {"type": "Point", "coordinates": [-73.912034, 40.775036]}, "properties": {"name": "Astoria-Ditmars Blvd", "lines": "N W", "borough": "Q"}}, {"type": "Feature", "geometry": {"type": "Point", "coordinates": [-73.948411, 40.639967]}, "properties": {"name": "Newkirk Av-Little Haiti", "lines": "2 5", "borough": "Bk"}}, {"type": "Feature", "geometry": {"type": "Point", "coordinates": [-73.922913, 40.706607]}, "properties": {"name": "Jefferson St", "lines": "L", "borough": "Bk"}}, {"type": "Feature", "geometry": {"type": "Point", "coordinates": [-73.987691, 40.755477]}, "properties": {"name": "Times Sq-42 St", "lines": "7", "borough": "M"}}, {"type": "Feature", "geometry": {"type": "Point", "coordinates": [-74.09609, 40.588849]}, "properties": {"name": "Dongan Hills", "lines": "SIR", "borough": "SI"}}, {"type": "Feature", "geometry": {"type": "Point", "coordinates": [-73.835919, 40.672097]}, "properties": {"name": "Aqueduct Racetrack", "lines": "A", "borough": "Q"}}, {"type": "Feature", "geometry": {"type": "Point", "coordinates": [-73.884639, 40.679947]}, "properties": {"name": "Cleveland St", "lines": "J", "borough": "Bk"}}, {"type": "Feature", "geometry": {"type": "Point", "coordinates": [-73.968916, 40.785868]}, "properties": {"name": "86 St", "lines": "C B", "borough": "M"}}, {"type": "Feature", "geometry": {"type": "Point", "coordinates": [-73.86505, 40.677044]}, "properties": {"name": "Grant Av", "lines": "A", "borough": "Bk"}}, {"type": "Feature", "geometry": {"type": "Point", "coordinates": [-73.898453, 40.749669]}, "properties": {"name": "65 St", "lines": "M R", "borough": "Q"}}, {"type": "Feature", "geometry": {"type": "Point", "coordinates": [-73.959399, 40.617618]}, "properties": {"name": "Avenue M", "lines": "Q", "borough": "Bk"}}, {"type": "Feature", "geometry": {"type": "Point", "coordinates": [-73.90087, 40.884667]}, "properties": {"name": "238 St", "lines": "1", "borough": "Bx"}}, {"type": "Feature", "geometry": {"type": "Point", "coordinates": [-73.964375, 40.671987]}, "properties": {"name": "Eastern Pkwy-Brooklyn Museum", "lines": "2 3", "borough": "Bk"}}, {"type": "Feature", "geometry": {"type": "Point", "coordinates": [-73.994659, 40.725915]}, "properties": {"name": "Bleecker St", "lines": "6", "borough": "M"}}, {"type": "Feature", "geometry": {"type": "Point", "coordinates": [-73.964492, 40.644031]}, "properties": {"name": "Beverley Rd", "lines": "Q", "borough": "Bk"}}, {"type": "Feature", "geometry": {"type": "Point", "coordinates": [-73.855334, 40.75173]}, "properties": {"name": "111 St", "lines": "7", "borough": "Q"}}, {"type": "Feature", "geometry": {"type": "Point", "coordinates": [-73.952343, 40.811109]}, "properties": {"name": "125 St", "lines": "A C B D", "borough": "M"}}, {"type": "Feature", "geometry": {"type": "Point", "coordinates": [-73.992821, 40.742878]}, "properties": {"name": "23 St", "lines": "F M", "borough": "M"}}, {"type": "Feature", "geometry": {"type": "Point", "coordinates": [-74.011862, 40.707557]}, "properties": {"name": "Wall St", "lines": "4 5", "borough": "M"}}, {"type": "Feature", "geometry": {"type": "Point", "coordinates": [-73.980353, 40.603923]}, "properties": {"name": "Kings Hwy", "lines": "N", "borough": "Bk"}}, {"type": "Feature", "geometry": {"type": "Point", "coordinates": [-73.953676, 40.822008]}, "properties": {"name": "137 St-City College", "lines": "1", "borough": "M"}}, {"type": "Feature", "geometry": {"type": "Point", "coordinates": [-73.949625, 40.802098]}, "properties": {"name": "116 St", "lines": "2 3", "borough": "M"}}, {"type": "Feature", "geometry": {"type": "Point", "coordinates": [-74.006886, 40.719318]}, "properties": {"name": "Franklin St", "lines": "1", "borough": "M"}}, {"type": "Feature", "geometry": {"type": "Point", "coordinates": [-73.911794, 40.84848]}, "properties": {"name": "176 St", "lines": "4", "borough": "Bx"}}, {"type": "Feature", "geometry": {"type": "Point", "coordinates": [-73.981637, 40.762862]}, "properties": {"name": "7 Av", "lines": "E B D", "borough": "M"}}, {"type": "Feature", "geometry": {"type": "Point", "coordinates": [-73.910136, 40.8459]}, "properties": {"name": "174-175 Sts", "lines": "B D", "borough": "Bx"}}, {"type": "Feature", "geometry": {"type": "Point", "coordinates": [-73.999892, 40.718092]}, "properties": {"name": "Canal St", "lines": "J Z", "borough": "M"}}, {"type": "Feature", "geometry": {"type": "Point", "coordinates": [-73.950275, 40.714063]}, "properties": {"name": "Lorimer St", "lines": "L", "borough": "Bk"}}, {"type": "Feature", "geometry": {"type": "Point", "coordinates": [-73.998041, 40.745906]}, "properties": {"name": "23 St", "lines": "C E", "borough": "M"}}, {"type": "Feature", "geometry": {"type": "Point", "coordinates": [-73.950426, 40.680438]}, "properties": {"name": "Nostrand Av", "lines": "A C", "borough": "Bk"}}, {"type": "Feature", "geometry": {"type": "Point", "coordinates": [-74.005351, 40.631386]}, "properties": {"name": "Fort Hamilton Pkwy", "lines": "N", "borough": "Bk"}}, {"type": "Feature", "geometry": {"type": "Point", "coordinates": [-73.855359, 40.858985]}, "properties": {"name": "Pelham Pkwy", "lines": "5", "borough": "Bx"}}, {"type": "Feature", "geometry": {"type": "Point", "coordinates": [-73.929575, 40.756804]}, "properties": {"name": "36 Av", "lines": "N W", "borough": "Q"}}, {"type": "Feature", "geometry": {"type": "Point", "coordinates": [-73.887138, 40.873244]}, "properties": {"name": "Bedford Park Blvd", "lines": "B D", "borough": "Bx"}}, {"type": "Feature", "geometry": {"type": "Point", "coordinates": [-73.926138, 40.810476]}, "properties": {"name": "3 Av-138 St", "lines": "6", "borough": "Bx"}}, {"type": "Feature", "geometry": {"type": "Point", "coordinates": [-73.927397, 40.697857]}, "properties": {"name": "Central Av", "lines": "M", "borough": "Bk"}}, {"type": "Feature", "geometry": {"type": "Point", "coordinates": [-73.95085, 40.662742]}, "properties": {"name": "Sterling St", "lines": "2 5", "borough": "Bk"}}, {"type": "Feature", "geometry": {"type": "Point", "coordinates": [-73.995959, 40.67358]}, "properties": {"name": "Smith-9 Sts", "lines": "F G", "borough": "Bk"}}, {"type": "Feature", "geometry": {"type": "Point", "coordinates": [-73.879159, 40.828584]}, "properties": {"name": "Elder Av", "lines": "6", "borough": "Bx"}}, {"type": "Feature", "geometry": {"type": "Point", "coordinates": [-73.947152, 40.784318]}, "properties": {"name": "96 St", "lines": "Q", "borough": "M"}}, {"type": "Feature", "geometry": {"type": "Point", "coordinates": [-74.006571, 40.709416]}, "properties": {"name": "Fulton St", "lines": "2 3", "borough": "M"}}, {"type": "Feature", "geometry": {"type": "Point", "coordinates": [-74.075162, 40.627915]}, "properties": {"name": "Stapleton", "lines": "SIR", "borough": "SI"}}, {"type": "Feature", "geometry": {"type": "Point", "coordinates": [-73.895877, 40.706186]}, "properties": {"name": "Fresh Pond Rd", "lines": "M", "borough": "Q"}}, {"type": "Feature", "geometry": {"type": "Point", "coordinates": [-73.939892, 40.836013]}, "properties": {"name": "163 St-Amsterdam Av", "lines": "C", "borough": "M"}}, {"type": "Feature", "geometry": {"type": "Point", "coordinates": [-73.981824, 40.690635]}, "properties": {"name": "DeKalb Av", "lines": "B Q R", "borough": "Bk"}}, {"type": "Feature", "geometry": {"type": "Point", "coordinates": [-73.984264, 40.74307]}, "properties": {"name": "28 St", "lines": "6", "borough": "M"}}, {"type": "Feature", "geometry": {"type": "Point", "coordinates": [-73.968379, 40.799446]}, "properties": {"name": "103 St", "lines": "1", "borough": "M"}}, {"type": "Feature", "geometry": {"type": "Point", "coordinates": [-73.942836, 40.754203]}, "properties": {"name": "21 St-Queensbridge", "lines": "M", "borough": "Q"}}, {"type": "Feature", "geometry": {"type": "Point", "coordinates": [-73.854376, 40.898379]}, "properties": {"name": "Nereid Av", "lines": "2 5", "borough": "Bx"}}, {"type": "Feature", "geometry": {"type": "Point", "coordinates": [-73.84433, 40.695178]}, "properties": {"name": "104 St", "lines": "J Z", "borough": "Q"}}, {"type": "Feature", "geometry": {"type": "Point", "coordinates": [-73.903097, 40.675345]}, "properties": {"name": "Atlantic Av", "lines": "L", "borough": "Bk"}}, {"type": "Feature", "geometry": {"type": "Point", "coordinates": [-73.985942, 40.69218]}, "properties": {"name": "Jay St-MetroTech", "lines": "R", "borough": "Bk"}}, {"type": "Feature", "geometry": {"type": "Point", "coordinates": [-73.980492, 40.688246]}, "properties": {"name": "Nevins St", "lines": "2 3 4 5", "borough": "Bk"}}, {"type": "Feature", "geometry": {"type": "Point", "coordinates": [-73.901975, 40.669367]}, "properties": {"name": "Sutter Av", "lines": "L", "borough": "Bk"}}, {"type": "Feature", "geometry": {"type": "Point", "coordinates": [-73.97689, 40.68446]}, "properties": {"name": "Atlantic Av-Barclays Ctr", "lines": "B Q", "borough": "Bk"}}, {"type": "Feature", "geometry": {"type": "Point", "coordinates": [-73.847036, 40.836488]}, "properties": {"name": "Zerega Av", "lines": "6", "borough": "Bx"}}, {"type": "Feature", "geometry": {"type": "Point", "coordinates": [-73.979678, 40.644041]}, "properties": {"name": "Church Av", "lines": "F G", "borough": "Bk"}}, {"type": "Feature", "geometry": {"type": "Point", "coordinates": [-73.975939, 40.576127]}, "properties": {"name": "W 8 St-NY Aquarium", "lines": "F Q", "borough": "Bk"}}, {"type": "Feature", "geometry": {"type": "Point", "coordinates": [-73.973022, 40.608944]}, "properties": {"name": "Avenue P", "lines": "F", "borough": "Bk"}}, {"type": "Feature", "geometry": {"type": "Point", "coordinates": [-73.925831, 40.827994]}, "properties": {"name": "161 St-Yankee Stadium", "lines": "4", "borough": "Bx"}}, {"type": "Feature", "geometry": {"type": "Point", "coordinates": [-73.93647, 40.82388]}, "properties": {"name": "Harlem-148 St", "lines": "3", "borough": "M"}}, {"type": "Feature", "geometry": {"type": "Point", "coordinates": [-74.000201, 40.737826]}, "properties": {"name": "14 St", "lines": "1 2 3", "borough": "M"}}, {"type": "Feature", "geometry": {"type": "Point", "coordinates": [-73.776013, 40.592943]}, "properties": {"name": "Beach 44 St", "lines": "A", "borough": "Q"}}, {"type": "Feature", "geometry": {"type": "Point", "coordinates": [-73.896736, 40.822181]}, "properties": {"name": "Intervale Av", "lines": "2 5", "borough": "Bx"}}, {"type": "Feature", "geometry": {"type": "Point", "coordinates": [-73.85062, 40.903125]}, "properties": {"name": "Wakefield-241 St", "lines": "2", "borough": "Bx"}}, {"type": "Feature", "geometry": {"type": "Point", "coordinates": [-73.988114, 40.718611]}, "properties": {"name": "Delancey St-Essex St", "lines": "F", "borough": "M"}}, {"type": "Feature", "geometry": {"type": "Point", "coordinates": [-73.836345, 40.697418]}, "properties": {"name": "111 St", "lines": "J", "borough": "Q"}}, {"type": "Feature", "geometry": {"type": "Point", "coordinates": [-73.783817, 40.712646]}, "properties": {"name": "Jamaica-179 St", "lines": "F", "borough": "Q"}}, {"type": "Feature", "geometry": {"type": "Point", "coordinates": [-73.896435, 40.816104]}, "properties": {"name": "Longwood Av", "lines": "6", "borough": "Bx"}}, {"type": "Feature", "geometry": {"type": "Point", "coordinates": [-73.966847, 40.803967]}, "properties": {"name": "Cathedral Pkwy (110 St)", "lines": "1", "borough": "M"}}, {"type": "Feature", "geometry": {"type": "Point", "coordinates": [-73.980658, 40.764664]}, "properties": {"name": "57 St-7 Av", "lines": "N Q R W", "borough": "M"}}, {"type": "Feature", "geometry": {"type": "Point", "coordinates": [-73.851222, 40.834255]}, "properties": {"name": "Castle Hill Av", "lines": "6", "borough": "Bx"}}, {"type": "Feature", "geometry": {"type": "Point", "coordinates": [-73.993728, 40.601875]}, "properties": {"name": "Bay Pkwy", "lines": "D", "borough": "Bk"}}, {"type": "Feature", "geometry": {"type": "Point", "coordinates": [-73.94425, 40.79502]}, "properties": {"name": "110 St", "lines": "6", "borough": "M"}}, {"type": "Feature", "geometry": {"type": "Point", "coordinates": [-74.0091, 40.706821]}, "properties": {"name": "Wall St", "lines": "2 3", "borough": "M"}}, {"type": "Feature", "geometry": {"type": "Point", "coordinates": [-73.820558, 40.585307]}, "properties": {"name": "Beach 98 St", "lines": "A S", "borough": "Q"}}, {"type": "Feature", "geometry": {"type": "Point", "coordinates": [-73.984139, 40.759901]}, "properties": {"name": "49 St", "lines": "N R W", "borough": "M"}}, {"type": "Feature", "geometry": {"type": "Point", "coordinates": [-73.938209, 40.830135]}, "properties": {"name": "155 St", "lines": "B D", "borough": "M"}}, {"type": "Feature", "geometry": {"type": "Point", "coordinates": [-74.191794, 40.533674]}, "properties": {"name": "Huguenot", "lines": "SIR", "borough": "SI"}}, {"type": "Feature", "geometry": {"type": "Point", "coordinates": [-73.894895, 40.664635]}, "properties": {"name": "Pennsylvania Av", "lines": "3", "borough": "Bk"}}, {"type": "Feature", "geometry": {"type": "Point", "coordinates": [-73.918435, 40.743132]}, "properties": {"name": "46 St-Bliss St", "lines": "7", "borough": "Q"}}, {"type": "Feature", "geometry": {"type": "Point", "coordinates": [-73.873488, 40.841894]}, "properties": {"name": "E 180 St", "lines": "2 5", "borough": "Bx"}}, {"type": "Feature", "geometry": {"type": "Point", "coordinates": [-73.907684, 40.853453]}, "properties": {"name": "Burnside Av", "lines": "4", "borough": "Bx"}}, {"type": "Feature", "geometry": {"type": "Point", "coordinates": [-73.951787, 40.777891]}, "properties": {"name": "86 St", "lines": "Q", "borough": "M"}}, {"type": "Feature", "geometry": {"type": "Point", "coordinates": [-73.975224, 40.760167]}, "properties": {"name": "5 Av/53 St", "lines": "E F", "borough": "M"}}, {"type": "Feature", "geometry": {"type": "Point", "coordinates": [-73.950308, 40.706092]}, "properties": {"name": "Broadway", "lines": "G", "borough": "Bk"}}, {"type": "Feature", "geometry": {"type": "Point", "coordinates": [-73.981736, 40.768296]}, "properties": {"name": "59 St-Columbus Circle", "lines": "A C B D", "borough": "M"}}, {"type": "Feature", "geometry": {"type": "Point", "coordinates": [-74.011029, 40.710668]}, "properties": {"name": "Cortlandt St", "lines": "R W", "borough": "M"}}, {"type": "Feature", "geometry": {"type": "Point", "coordinates": [-73.866256, 40.87785]}, "properties": {"name": "Gun Hill Rd", "lines": "2 5", "borough": "Bx"}}, {"type": "Feature", "geometry": {"type": "Point", "coordinates": [-73.991057, 40.750373]}, "properties": {"name": "34 St-Penn Station", "lines": "1 2 3", "borough": "M"}}, {"type": "Feature", "geometry": {"type": "Point", "coordinates": [-73.955161, 40.595246]}, "properties": {"name": "Neck Rd", "lines": "Q", "borough": "Bk"}}, {"type": "Feature", "geometry": {"type": "Point", "coordinates": [-73.843853, 40.680429]}, "properties": {"name": "Rockaway Blvd", "lines": "A", "borough": "Q"}}, {"type": "Feature", "geometry": {"type": "Point", "coordinates": [-74.023377, 40.634967]}, "properties": {"name": "Bay Ridge Av", "lines": "R", "borough": "Bk"}}, {"type": "Feature", "geometry": {"type": "Point", "coordinates": [-73.981233, 40.577422]}, "properties": {"name": "Coney Island-Stillwell Av", "lines": "D F N Q", "borough": "Bk"}}, {"type": "Feature", "geometry": {"type": "Point", "coordinates": [-73.96387, 40.768141]}, "properties": {"name": "68 St-Hunter College", "lines": "6", "borough": "M"}}, {"type": "Feature", "geometry": {"type": "Point", "coordinates": [-73.906006, 40.752885]}, "properties": {"name": "Northern Blvd", "lines": "M R", "borough": "Q"}}, {"type": "Feature", "geometry": {"type": "Point", "coordinates": [-73.90185, 40.646654]}, "properties": {"name": "Canarsie-Rockaway Pkwy", "lines": "L", "borough": "Bk"}}, {"type": "Feature", "geometry": {"type": "Point", "coordinates": [-74.00169, 40.740893]}, "properties": {"name": "14 St", "lines": "A C E", "borough": "M"}}, {"type": "Feature", "geometry": {"type": "Point", "coordinates": [-73.943832, 40.746554]}, "properties": {"name": "Court Sq", "lines": "G", "borough": "Q"}}, {"type": "Feature", "geometry": {"type": "Point", "coordinates": [-73.971046, 40.675235]}, "properties": {"name": "Grand Army Plaza", "lines": "2 3", "borough": "Bk"}}, {"type": "Feature", "geometry": {"type": "Point", "coordinates": [-73.928814, 40.693342]}, "properties": {"name": "Kosciuszko St", "lines": "J", "borough": "Bk"}}, {"type": "Feature", "geometry": {"type": "Point", "coordinates": [-73.996209, 40.738228]}, "properties": {"name": "14 St", "lines": "F M", "borough": "M"}}, {"type": "Feature", "geometry": {"type": "Point", "coordinates": [-73.919711, 40.698664]}, "properties": {"name": "Knickerbocker Av", "lines": "M", "borough": "Bk"}}, {"type": "Feature", "geometry": {"type": "Point", "coordinates": [-73.91924, 40.807566]}, "properties": {"name": "Brook Av", "lines": "6", "borough": "Bx"}}, {"type": "Feature", "geometry": {"type": "Point", "coordinates": [-73.834058, 40.668234]}, "properties": {"name": "Aqueduct-N Conduit Av", "lines": "A", "borough": "Q"}}, {"type": "Feature", "geometry": {"type": "Point", "coordinates": [-74.12632, 40.56511]}, "properties": {"name": "Oakwood Heights", "lines": "SIR", "borough": "SI"}}, {"type": "Feature", "geometry": {"type": "Point", "coordinates": [-73.98197, 40.778453]}, "properties": {"name": "72 St", "lines": "1 2 3", "borough": "M"}}, {"type": "Feature", "geometry": {"type": "Point", "coordinates": [-73.998864, 40.619589]}, "properties": {"name": "71 St", "lines": "D", "borough": "Bk"}}, {"type": "Feature", "geometry": {"type": "Point", "coordinates": [-73.932942, 40.668897]}, "properties": {"name": "Crown Hts-Utica Av", "lines": "3 4", "borough": "Bk"}}, {"type": "Feature", "geometry": {"type": "Point", "coordinates": [-73.883697, 40.747659]}, "properties": {"name": "82 St-Jackson Hts", "lines": "7", "borough": "Q"}}, {"type": "Feature", "geometry": {"type": "Point", "coordinates": [-73.891688, 40.678024]}, "properties": {"name": "Van Siclen Av", "lines": "J Z", "borough": "Bk"}}, {"type": "Feature", "geometry": {"type": "Point", "coordinates": [-73.944053, 40.714565]}, "properties": {"name": "Graham Av", "lines": "L", "borough": "Bk"}}, {"type": "Feature", "geometry": {"type": "Point", "coordinates": [-73.867139, 40.691324]}, "properties": {"name": "75 St-Elderts Ln", "lines": "J Z", "borough": "Q"}}, {"type": "Feature", "geometry": {"type": "Point", "coordinates": [-73.845625, 40.754622]}, "properties": {"name": "Mets-Willets Point", "lines": "7", "borough": "Q"}}, {"type": "Feature", "geometry": {"type": "Point", "coordinates": [-73.997141, 40.722301]}, "properties": {"name": "Spring St", "lines": "6", "borough": "M"}}, {"type": "Feature", "geometry": {"type": "Point", "coordinates": [-73.97745, 40.763972]}, "properties": {"name": "57 St", "lines": "M", "borough": "M"}}, {"type": "Feature", "geometry": {"type": "Point", "coordinates": [-73.951822, 40.799075]}, "properties": {"name": "110 St-Malcolm X Plaza", "lines": "2 3", "borough": "M"}}, {"type": "Feature", "geometry": {"type": "Point", "coordinates": [-73.964696, 40.791642]}, "properties": {"name": "96 St", "lines": "C B", "borough": "M"}}, {"type": "Feature", "geometry": {"type": "Point", "coordinates": [-74.003549, 40.655144]}, "properties": {"name": "36 St", "lines": "D N R", "borough": "Bk"}}, {"type": "Feature", "geometry": {"type": "Point", "coordinates": [-73.810708, 40.70546]}, "properties": {"name": "Sutphin Blvd", "lines": "F", "borough": "Q"}}, {"type": "Feature", "geometry": {"type": "Point", "coordinates": [-73.872106, 40.675377]}, "properties": {"name": "Euclid Av", "lines": "A C", "borough": "Bk"}}, {"type": "Feature", "geometry": {"type": "Point", "coordinates": [-73.997702, 40.724329]}, "properties": {"name": "Prince St", "lines": "R W", "borough": "M"}}, {"type": "Feature", "geometry": {"type": "Point", "coordinates": [-73.933596, 40.849505]}, "properties": {"name": "181 St", "lines": "1", "borough": "M"}}, {"type": "Feature", "geometry": {"type": "Point", "coordinates": [-74.087368, 40.596612]}, "properties": {"name": "Old Town", "lines": "SIR", "borough": "SI"}}, {"type": "Feature", "geometry": {"type": "Point", "coordinates": [-74.005229, 40.720824]}, "properties": {"name": "Canal St", "lines": "A C E", "borough": "M"}}, {"type": "Feature", "geometry": {"type": "Point", "coordinates": [-73.919899, 40.868072]}, "properties": {"name": "Inwood-207 St", "lines": "A", "borough": "M"}}, {"type": "Feature", "geometry": {"type": "Point", "coordinates": [-73.960803, 40.625039]}, "properties": {"name": "Avenue J", "lines": "Q", "borough": "Bk"}}, {"type": "Feature", "geometry": {"type": "Point", "coordinates": [-73.948959, 40.645098]}, "properties": {"name": "Beverly Rd", "lines": "2 5", "borough": "Bk"}}, {"type": "Feature", "geometry": {"type": "Point", "coordinates": [-73.876613, 40.748408]}, "properties": {"name": "90 St-Elmhurst Av", "lines": "7", "borough": "Q"}}, {"type": "Feature", "geometry": {"type": "Point", "coordinates": [-73.953431, 40.70687]}, "properties": {"name": "Hewes St", "lines": "M J", "borough": "Bk"}}, {"type": "Feature", "geometry": {"type": "Point", "coordinates": [-73.890064, 40.873412]}, "properties": {"name": "Bedford Park Blvd-Lehman College", "lines": "4", "borough": "Bx"}}, {"type": "Feature", "geometry": {"type": "Point", "coordinates": [-73.99073, 40.734789]}, "properties": {"name": "14 St-Union Sq", "lines": "L", "borough": "M"}}, {"type": "Feature", "geometry": {"type": "Point", "coordinates": [-73.933147, 40.706152]}, "properties": {"name": "Morgan Av", "lines": "L", "borough": "Bk"}}, {"type": "Feature", "geometry": {"type": "Point", "coordinates": [-73.981329, 40.758663]}, "properties": {"name": "47-50 Sts-Rockefeller Ctr", "lines": "B D F M", "borough": "M"}}, {"type": "Feature", "geometry": {"type": "Point", "coordinates": [-73.945264, 40.747023]}, "properties": {"name": "Court Sq", "lines": "7", "borough": "Q"}}, {"type": "Feature", "geometry": {"type": "Point", "coordinates": [-74.006277, 40.722854]}, "properties": {"name": "Canal St", "lines": "1", "borough": "M"}}, {"type": "Feature", "geometry": {"type": "Point", "coordinates": [-73.837683, 40.681711]}, "properties": {"name": "104 St", "lines": "A", "borough": "Q"}}, {"type": "Feature", "geometry": {"type": "Point", "coordinates": [-74.003401, 40.713243]}, "properties": {"name": "Chambers St", "lines": "J Z", "borough": "M"}}, {"type": "Feature", "geometry": {"type": "Point", "coordinates": [-73.986122, 40.732849]}, "properties": {"name": "3 Av", "lines": "L", "borough": "M"}}, {"type": "Feature", "geometry": {"type": "Point", "coordinates": [-73.893509, 40.866978]}, "properties": {"name": "Kingsbridge Rd", "lines": "B D", "borough": "Bx"}}, {"type": "Feature", "geometry": {"type": "Point", "coordinates": [-73.942161, 40.669399]}, "properties": {"name": "Kingston Av", "lines": "3", "borough": "Bk"}}, {"type": "Feature", "geometry": {"type": "Point", "coordinates": [-74.013342, 40.70722]}, "properties": {"name": "Rector St", "lines": "R W", "borough": "M"}}, {"type": "Feature", "geometry": {"type": "Point", "coordinates": [-73.87255, 40.689941]}, "properties": {"name": "Cypress Hills", "lines": "J", "borough": "Bk"}}, {"type": "Feature", "geometry": {"type": "Point", "coordinates": [-73.990531, 40.699337]}, "properties": {"name": "High St", "lines": "A C", "borough": "Bk"}}, {"type": "Feature", "geometry": {"type": "Point", "coordinates": [-73.844521, 40.721691]}, "properties": {"name": "Forest Hills-71 Av", "lines": "E F M R", "borough": "Q"}}, {"type": "Feature", "geometry": {"type": "Point", "coordinates": [-73.904046, 40.688764]}, "properties": {"name": "Wilson Av", "lines": "L", "borough": "Bk"}}, {"type": "Feature", "geometry": {"type": "Point", "coordinates": [-73.953522, 40.689627]}, "properties": {"name": "Bedford-Nostrand Avs", "lines": "G", "borough": "Bk"}}, {"type": "Feature", "geometry": {"type": "Point", "coordinates": [-74.242096, 40.516578]}, "properties": {"name": "Arthur Kill", "lines": "SIR", "borough": "SI"}}, {"type": "Feature", "geometry": {"type": "Point", "coordinates": [-73.900571, 40.664038]}, "properties": {"name": "Livonia Av", "lines": "L", "borough": "Bk"}}, {"type": "Feature", "geometry": {"type": "Point", "coordinates": [-73.997871, 40.74104]}, "properties": {"name": "18 St", "lines": "1", "borough": "M"}}, {"type": "Feature", "geometry": {"type": "Point", "coordinates": [-73.904084, 40.695602]}, "properties": {"name": "Halsey St", "lines": "L", "borough": "Q"}}, {"type": "Feature", "geometry": {"type": "Point", "coordinates": [-73.981963, 40.753821]}, "properties": {"name": "5 Av", "lines": "7", "borough": "M"}}, {"type": "Feature", "geometry": {"type": "Point", "coordinates": [-73.995048, 40.680303]}, "properties": {"name": "Carroll St", "lines": "F G", "borough": "Bk"}}, {"type": "Feature", "geometry": {"type": "Point", "coordinates": [-73.950683, 40.667883]}, "properties": {"name": "President St-Medgar Evers College", "lines": "2 5", "borough": "Bk"}}, {"type": "Feature", "geometry": {"type": "Point", "coordinates": [-73.978172, 40.636119]}, "properties": {"name": "Ditmas Av", "lines": "F", "borough": "Bk"}}, {"type": "Feature", "geometry": {"type": "Point", "coordinates": [-73.972361, 40.603217]}, "properties": {"name": "Kings Hwy", "lines": "F", "borough": "Bk"}}, {"type": "Feature", "geometry": {"type": "Point", "coordinates": [-73.927351, 40.818375]}, "properties": {"name": "149 St-Grand Concourse", "lines": "4", "borough": "Bx"}}, {"type": "Feature", "geometry": {"type": "Point", "coordinates": [-74.11721, 40.57348]}, "properties": {"name": "New Dorp", "lines": "SIR", "borough": "SI"}}, {"type": "Feature", "geometry": {"type": "Point", "coordinates": [-73.788522, 40.592374]}, "properties": {"name": "Beach 60 St", "lines": "A", "borough": "Q"}}, {"type": "Feature", "geometry": {"type": "Point", "coordinates": [-73.926718, 40.81841]}, "properties": {"name": "149 St-Grand Concourse", "lines": "2 5", "borough": "Bx"}}, {"type": "Feature", "geometry": {"type": "Point", "coordinates": [-73.97881, 40.683666]}, "properties": {"name": "Atlantic Av-Barclays Ctr", "lines": "D N R", "borough": "Bk"}}, {"type": "Feature", "geometry": {"type": "Point", "coordinates": [-73.867164, 40.871356]}, "properties": {"name": "Burke Av", "lines": "2 5", "borough": "Bx"}}, {"type": "Feature", "geometry": {"type": "Point", "coordinates": [-73.972367, 40.67705]}, "properties": {"name": "7 Av", "lines": "B Q", "borough": "Bk"}}, {"type": "Feature", "geometry": {"type": "Point", "coordinates": [-73.954155, 40.586896]}, "properties": {"name": "Sheepshead Bay", "lines": "B Q", "borough": "Bk"}}, {"type": "Feature", "geometry": {"type": "Point", "coordinates": [-73.994324, 40.646292]}, "properties": {"name": "9 Av", "lines": "D", "borough": "Bk"}}, {"type": "Feature", "geometry": {"type": "Point", "coordinates": [-74.000495, 40.732338]}, "properties": {"name": "W 4 St-Wash Sq", "lines": "A C E", "borough": "M"}}, {"type": "Feature", "geometry": {"type": "Point", "coordinates": [-73.816859, 40.702566]}, "properties": {"name": "Jamaica-Van Wyck", "lines": "E", "borough": "Q"}}, {"type": "Feature", "geometry": {"type": "Point", "coordinates": [-73.949724, 40.744065]}, "properties": {"name": "21 St", "lines": "G", "borough": "Q"}}, {"type": "Feature", "geometry": {"type": "Point", "coordinates": [-73.941514, 40.830518]}, "properties": {"name": "155 St", "lines": "C", "borough": "M"}}, {"type": "Feature", "geometry": {"type": "Point", "coordinates": [-73.9214, 40.835537]}, "properties": {"name": "167 St", "lines": "4", "borough": "Bx"}}, {"type": "Feature", "geometry": {"type": "Point", "coordinates": [-73.898583, 40.889248]}, "properties": {"name": "Van Cortlandt Park-242 St", "lines": "1", "borough": "Bx"}}, {"type": "Feature", "geometry": {"type": "Point", "coordinates": [-73.985984, 40.762456]}, "properties": {"name": "50 St", "lines": "C E", "borough": "M"}}, {"type": "Feature", "geometry": {"type": "Point", "coordinates": [-73.982076, 40.746081]}, "properties": {"name": "33 St", "lines": "6", "borough": "M"}}, {"type": "Feature", "geometry": {"type": "Point", "coordinates": [-73.979917, 40.783934]}, "properties": {"name": "79 St", "lines": "1", "borough": "M"}}, {"type": "Feature", "geometry": {"type": "Point", "coordinates": [-73.940858, 40.679921]}, "properties": {"name": "Kingston-Throop Avs", "lines": "C", "borough": "Bk"}}, {"type": "Feature", "geometry": {"type": "Point", "coordinates": [-73.862633, 40.883895]}, "properties": {"name": "219 St", "lines": "2 5", "borough": "Bx"}}, {"type": "Feature", "geometry": {"type": "Point", "coordinates": [-73.877223, 40.737015]}, "properties": {"name": "Grand Av-Newtown", "lines": "M R", "borough": "Q"}}, {"type": "Feature", "geometry": {"type": "Point", "coordinates": [-73.996353, 40.624842]}, "properties": {"name": "New Utrecht Av", "lines": "N", "borough": "Bk"}}, {"type": "Feature", "geometry": {"type": "Point", "coordinates": [-73.944216, 40.824783]}, "properties": {"name": "145 St", "lines": "A C", "borough": "M"}}, {"type": "Feature", "geometry": {"type": "Point", "coordinates": [-73.925508, 40.76182]}, "properties": {"name": "Broadway", "lines": "N W", "borough": "Q"}}, {"type": "Feature", "geometry": {"type": "Point", "coordinates": [-73.973946, 40.686113]}, "properties": {"name": "Lafayette Av", "lines": "C", "borough": "Bk"}}, {"type": "Feature", "geometry": {"type": "Point", "coordinates": [-73.955929, 40.5993]}, "properties": {"name": "Avenue U", "lines": "Q", "borough": "Bk"}}, {"type": "Feature", "geometry": {"type": "Point", "coordinates": [-73.85147, 40.679843]}, "properties": {"name": "88 St", "lines": "A", "borough": "Q"}}, {"type": "Feature", "geometry": {"type": "Point", "coordinates": [-73.998091, 40.660397]}, "properties": {"name": "25 St", "lines": "R", "borough": "Bk"}}, {"type": "Feature", "geometry": {"type": "Point", "coordinates": [-73.913333, 40.756312]}, "properties": {"name": "46 St", "lines": "M R", "borough": "Q"}}, {"type": "Feature", "geometry": {"type": "Point", "coordinates": [-73.975375, 40.687119]}, "properties": {"name": "Fulton St", "lines": "G", "borough": "Bk"}}, {"type": "Feature", "geometry": {"type": "Point", "coordinates": [-74.000193, 40.718803]}, "properties": {"name": "Canal St", "lines": "6", "borough": "M"}}, {"type": "Feature", "geometry": {"type": "Point", "coordinates": [-73.990151, 40.692404]}, "properties": {"name": "Borough Hall", "lines": "4 5", "borough": "Bk"}}, {"type": "Feature", "geometry": {"type": "Point", "coordinates": [-73.96411, 40.807722]}, "properties": {"name": "116 St-Columbia University", "lines": "1", "borough": "M"}}, {"type": "Feature", "geometry": {"type": "Point", "coordinates": [-73.860816, 40.833226]}, "properties": {"name": "Parkchester", "lines": "6", "borough": "Bx"}}, {"type": "Feature", "geometry": {"type": "Point", "coordinates": [-73.986599, 40.739864]}, "properties": {"name": "23 St-Baruch College", "lines": "6", "borough": "M"}}, {"type": "Feature", "geometry": {"type": "Point", "coordinates": [-73.796924, 40.590927]}, "properties": {"name": "Beach 67 St", "lines": "A", "borough": "Q"}}, {"type": "Feature", "geometry": {"type": "Point", "coordinates": [-73.903879, 40.858407]}, "properties": {"name": "183 St", "lines": "4", "borough": "Bx"}}, {"type": "Feature", "geometry": {"type": "Point", "coordinates": [-73.969055, 40.757552]}, "properties": {"name": "Lexington Av/53 St", "lines": "E F", "borough": "M"}}, {"type": "Feature", "geometry": {"type": "Point", "coordinates": [-73.962246, 40.661614]}, "properties": {"name": "Prospect Park", "lines": "B Q S", "borough": "Bk"}}, {"type": "Feature", "geometry": {"type": "Point", "coordinates": [-73.993365, 40.747215]}, "properties": {"name": "28 St", "lines": "1", "borough": "M"}}, {"type": "Feature", "geometry": {"type": "Point", "coordinates": [-74.006978, 40.713282]}, "properties": {"name": "City Hall", "lines": "R W", "borough": "M"}}, {"type": "Feature", "geometry": {"type": "Point", "coordinates": [-73.837324, 40.718331]}, "properties": {"name": "75 Av", "lines": "E F", "borough": "Q"}}, {"type": "Feature", "geometry": {"type": "Point", "coordinates": [-73.990414, 40.620671]}, "properties": {"name": "18 Av", "lines": "N", "borough": "Bk"}}, {"type": "Feature", "geometry": {"type": "Point", "coordinates": [-73.986754, 40.754672]}, "properties": {"name": "Times Sq-42 St", "lines": "N Q R W", "borough": "M"}}, {"type": "Feature", "geometry": {"type": "Point", "coordinates": [-73.940133, 40.840556]}, "properties": {"name": "168 St-Washington Hts", "lines": "1", "borough": "M"}}, {"type": "Feature", "geometry": {"type": "Point", "coordinates": [-73.936245, 40.820421]}, "properties": {"name": "145 St", "lines": "3", "borough": "M"}}, {"type": "Feature", "geometry": {"type": "Point", "coordinates": [-73.937969, 40.851695]}, "properties": {"name": "181 St", "lines": "A", "borough": "M"}}, {"type": "Feature", "geometry": {"type": "Point", "coordinates": [-73.915279, 40.869444]}, "properties": {"name": "215 St", "lines": "1", "borough": "M"}}, {"type": "Feature", "geometry": {"type": "Point", "coordinates": [-73.92227, 40.68963]}, "properties": {"name": "Gates Av", "lines": "J Z", "borough": "Bk"}}, {"type": "Feature", "geometry": {"type": "Point", "coordinates": [-73.924016, 40.743781]}, "properties": {"name": "40 St-Lowery St", "lines": "7", "borough": "Q"}}, {"type": "Feature", "geometry": {"type": "Point", "coordinates": [-73.990862, 40.686145]}, "properties": {"name": "Bergen St", "lines": "F G", "borough": "Bk"}}, {"type": "Feature", "geometry": {"type": "Point", "coordinates": [-73.930729, 40.679364]}, "properties": {"name": "Utica Av", "lines": "A C", "borough": "Bk"}}, {"type": "Feature", "geometry": {"type": "Point", "coordinates": [-73.958424, 40.768799]}, "properties": {"name": "72 St", "lines": "Q", "borough": "M"}}, {"type": "Feature", "geometry": {"type": "Point", "coordinates": [-73.993086, 40.697466]}, "properties": {"name": "Clark St", "lines": "2 3", "borough": "Bk"}}, {"type": "Feature", "geometry": {"type": "Point", "coordinates": [-73.97641, 40.775594]}, "properties": {"name": "72 St", "lines": "C B", "borough": "M"}}, {"type": "Feature", "geometry": {"type": "Point", "coordinates": [-73.88075, 40.67413]}, "properties": {"name": "Shepherd Av", "lines": "C", "borough": "Bk"}}, {"type": "Feature", "geometry": {"type": "Point", "coordinates": [-74.017881, 40.641362]}, "properties": {"name": "59 St", "lines": "N R", "borough": "Bk"}}, {"type": "Feature", "geometry": {"type": "Point", "coordinates": [-74.007691, 40.710197]}, "properties": {"name": "Fulton St", "lines": "A C", "borough": "M"}}, {"type": "Feature", "geometry": {"type": "Point", "coordinates": [-73.832569, 40.84681]}, "properties": {"name": "Buhre Av", "lines": "6", "borough": "Bx"}}, {"type": "Feature", "geometry": {"type": "Point", "coordinates": [-73.925651, 40.827905]}, "properties": {"name": "161 St-Yankee Stadium", "lines": "B D", "borough": "Bx"}}, {"type": "Feature", "geometry": {"type": "Point", "coordinates": [-73.959874, 40.77362]}, "properties": {"name": "77 St", "lines": "6", "borough": "M"}}, {"type": "Feature", "geometry": {"type": "Point", "coordinates": [-73.961639, 40.62927]}, "properties": {"name": "Avenue H", "lines": "Q", "borough": "Bk"}}, {"type": "Feature", "geometry": {"type": "Point", "coordinates": [-74.013783, 40.707513]}, "properties": {"name": "Rector St", "lines": "1", "borough": "M"}}, {"type": "Feature", "geometry": {"type": "Point", "coordinates": [-73.932755, 40.752882]}, "properties": {"name": "39 Av-Dutch Kills", "lines": "N W", "borough": "Q"}}, {"type": "Feature", "geometry": {"type": "Point", "coordinates": [-73.996204, 40.725297]}, "properties": {"name": "Broadway-Lafayette St", "lines": "B D F M", "borough": "M"}}, {"type": "Feature", "geometry": {"type": "Point", "coordinates": [-74.136907, 40.5564]}, "properties": {"name": "Bay Terrace", "lines": "SIR", "borough": "SI"}}, {"type": "Feature", "geometry": {"type": "Point", "coordinates": [-73.828294, 40.700492]}, "properties": {"name": "121 St", "lines": "J Z", "borough": "Q"}}, {"type": "Feature", "geometry": {"type": "Point", "coordinates": [-74.005367, 40.728251]}, "properties": {"name": "Houston St", "lines": "1", "borough": "M"}}, {"type": "Feature", "geometry": {"type": "Point", "coordinates": [-73.793604, 40.71047]}, "properties": {"name": "169 St", "lines": "F", "borough": "Q"}}, {"type": "Feature", "geometry": {"type": "Point", "coordinates": [-73.976971, 40.629755]}, "properties": {"name": "18 Av", "lines": "F", "borough": "Bk"}}, {"type": "Feature", "geometry": {"type": "Point", "coordinates": [-73.830834, 40.8883]}, "properties": {"name": "Eastchester-Dyre Av", "lines": "5", "borough": "Bx"}}, {"type": "Feature", "geometry": {"type": "Point", "coordinates": [-73.950234, 40.700377]}, "properties": {"name": "Flushing Av", "lines": "G", "borough": "Bk"}}, {"type": "Feature", "geometry": {"type": "Point", "coordinates": [-73.996895, 40.626472]}, "properties": {"name": "62 St", "lines": "D", "borough": "Bk"}}, {"type": "Feature", "geometry": {"type": "Point", "coordinates": [-73.92261, 40.664717]}, "properties": {"name": "Sutter Av-Rutland Rd", "lines": "3", "borough": "Bk"}}, {"type": "Feature", "geometry": {"type": "Point", "coordinates": [-73.880049, 40.840295]}, "properties": {"name": "West Farms Sq-E Tremont Av", "lines": "2 5", "borough": "Bx"}}, {"type": "Feature", "geometry": {"type": "Point", "coordinates": [-73.947478, 40.7906]}, "properties": {"name": "103 St", "lines": "6", "borough": "M"}}, {"type": "Feature", "geometry": {"type": "Point", "coordinates": [-73.761353, 40.600066]}, "properties": {"name": "Beach 25 St", "lines": "A", "borough": "Q"}}, {"type": "Feature", "geometry": {"type": "Point", "coordinates": [-74.007582, 40.710374]}, "properties": {"name": "Fulton St", "lines": "J Z", "borough": "M"}}, {"type": "Feature", "geometry": {"type": "Point", "coordinates": [-73.992629, 40.730328]}, "properties": {"name": "8 St-NYU", "lines": "R W", "borough": "M"}}, {"type": "Feature", "geometry": {"type": "Point", "coordinates": [-73.94067, 40.711926]}, "properties": {"name": "Grand St", "lines": "L", "borough": "Bk"}}, {"type": "Feature", "geometry": {"type": "Point", "coordinates": [-73.986229, 40.755983]}, "properties": {"name": "Times Sq-42 St", "lines": "S", "borough": "M"}}, {"type": "Feature", "geometry": {"type": "Point", "coordinates": [-74.200064, 40.525507]}, "properties": {"name": "Prince's Bay", "lines": "SIR", "borough": "SI"}}, {"type": "Feature", "geometry": {"type": "Point", "coordinates": [-73.889395, 40.665449]}, "properties": {"name": "Van Siclen Av", "lines": "3", "borough": "Bk"}}, {"type": "Feature", "geometry": {"type": "Point", "coordinates": [-73.83003, 40.7596]}, "properties": {"name": "Flushing-Main St", "lines": "7", "borough": "Q"}}, {"type": "Feature", "geometry": {"type": "Point", "coordinates": [-73.959245, 40.670343]}, "properties": {"name": "Botanic Garden", "lines": "S", "borough": "Bk"}}, {"type": "Feature", "geometry": {"type": "Point", "coordinates": [-73.897749, 40.861296]}, "properties": {"name": "Fordham Rd", "lines": "B D", "borough": "Bx"}}, {"type": "Feature", "geometry": {"type": "Point", "coordinates": [-73.975098, 40.680829]}, "properties": {"name": "Bergen St", "lines": "2 3", "borough": "Bk"}}, {"type": "Feature", "geometry": {"type": "Point", "coordinates": [-73.912385, 40.69943]}, "properties": {"name": "Myrtle-Wyckoff Avs", "lines": "M", "borough": "Bk"}}, {"type": "Feature", "geometry": {"type": "Point", "coordinates": [-73.982209, 40.77344]}, "properties": {"name": "66 St-Lincoln Center", "lines": "1", "borough": "M"}}, {"type": "Feature", "geometry": {"type": "Point", "coordinates": [-73.980305, 40.666271]}, "properties": {"name": "7 Av", "lines": "F G", "borough": "Bk"}}, {"type": "Feature", "geometry": {"type": "Point", "coordinates": [-73.914042, 40.805368]}, "properties": {"name": "Cypress Av", "lines": "6", "borough": "Bx"}}, {"type": "Feature", "geometry": {"type": "Point", "coordinates": [-73.961454, 40.796092]}, "properties": {"name": "103 St", "lines": "C B", "borough": "M"}}, {"type": "Feature", "geometry": {"type": "Point", "coordinates": [-73.830301, 40.660476]}, "properties": {"name": "Howard Beach-JFK Airport", "lines": "A", "borough": "Q"}}, {"type": "Feature", "geometry": {"type": "Point", "coordinates": [-73.949575, 40.650843]}, "properties": {"name": "Church Av", "lines": "2 5", "borough": "Bk"}}, {"type": "Feature", "geometry": {"type": "Point", "coordinates": [-73.891394, 40.746848]}, "properties": {"name": "74 St-Broadway", "lines": "7", "borough": "Q"}}, {"type": "Feature", "geometry": {"type": "Point", "coordinates": [-73.898654, 40.676992]}, "properties": {"name": "Alabama Av", "lines": "J Z", "borough": "Bk"}}, {"type": "Feature", "geometry": {"type": "Point", "coordinates": [-73.905249, 40.682829]}, "properties": {"name": "Bushwick Av-Aberdeen St", "lines": "L", "borough": "Bk"}}, {"type": "Feature", "geometry": {"type": "Point", "coordinates": [-73.98311, 40.677316]}, "properties": {"name": "Union St", "lines": "R", "borough": "Bk"}}, {"type": "Feature", "geometry": {"type": "Point", "coordinates": [-73.976848, 40.751776]}, "properties": {"name": "Grand Central-42 St", "lines": "4 5 6", "borough": "M"}}, {"type": "Feature", "geometry": {"type": "Point", "coordinates": [-73.86001, 40.692435]}, "properties": {"name": "85 St-Forest Pkwy", "lines": "J", "borough": "Q"}}, {"type": "Feature", "geometry": {"type": "Point", "coordinates": [-73.966113, 40.764629]}, "properties": {"name": "Lexington Av/63 St", "lines": "M Q", "borough": "M"}}, {"type": "Feature", "geometry": {"type": "Point", "coordinates": [-74.012994, 40.703087]}, "properties": {"name": "Whitehall St-South Ferry", "lines": "R W", "borough": "M"}}, {"type": "Feature", "geometry": {"type": "Point", "coordinates": [-73.893064, 40.824073]}, "properties": {"name": "Simpson St", "lines": "2 5", "borough": "Bx"}}, {"type": "Feature", "geometry": {"type": "Point", "coordinates": [-73.899232, 40.658733]}, "properties": {"name": "New Lots Av", "lines": "L", "borough": "Bk"}}, {"type": "Feature", "geometry": {"type": "Point", "coordinates": [-73.867352, 40.865462]}, "properties": {"name": "Allerton Av", "lines": "2 5", "borough": "Bx"}}, {"type": "Feature", "geometry": {"type": "Point", "coordinates": [-73.984569, 40.754222]}, "properties": {"name": "42 St-Bryant Pk", "lines": "B D F M", "borough": "M"}}, {"type": "Feature", "geometry": {"type": "Point", "coordinates": [-73.973357, 40.596063]}, "properties": {"name": "Avenue U", "lines": "F", "borough": "Bk"}}, {"type": "Feature", "geometry": {"type": "Point", "coordinates": [-73.929849, 40.813224]}, "properties": {"name": "138 St-Grand Concourse", "lines": "4 5", "borough": "Bx"}}, {"type": "Feature", "geometry": {"type": "Point", "coordinates": [-73.998168, 40.604556]}, "properties": {"name": "20 Av", "lines": "D", "borough": "Bk"}}, {"type": "Feature", "geometry": {"type": "Point", "coordinates": [-73.994304, 40.640914]}, "properties": {"name": "Fort Hamilton Pkwy", "lines": "D", "borough": "Bk"}}, {"type": "Feature", "geometry": {"type": "Point", "coordinates": [-73.979493, 40.660365]}, "properties": {"name": "15 St-Prospect Park", "lines": "F G", "borough": "Bk"}}, {"type": "Feature", "geometry": {"type": "Point", "coordinates": [-74.012188, 40.711835]}, "properties": {"name": "WTC Cortlandt", "lines": "1", "borough": "M"}}, {"type": "Feature", "geometry": {"type": "Point", "coordinates": [-74.000495, 40.732338]}, "properties": {"name": "W 4 St-Wash Sq", "lines": "B D F M", "borough": "M"}}, {"type": "Feature", "geometry": {"type": "Point", "coordinates": [-73.954449, 40.731352]}, "properties": {"name": "Greenpoint Av", "lines": "G", "borough": "Bk"}}, {"type": "Feature", "geometry": {"type": "Point", "coordinates": [-73.987437, 40.718315]}, "properties": {"name": "Delancey St-Essex St", "lines": "M J Z", "borough": "M"}}, {"type": "Feature", "geometry": {"type": "Point", "coordinates": [-73.981628, 40.730953]}, "properties": {"name": "1 Av", "lines": "L", "borough": "M"}}, {"type": "Feature", "geometry": {"type": "Point", "coordinates": [-73.961376, 40.577621]}, "properties": {"name": "Brighton Beach", "lines": "B Q", "borough": "Bk"}}, {"type": "Feature", "geometry": {"type": "Point", "coordinates": [-73.989735, 40.757308]}, "properties": {"name": "42 St-Port Authority Bus Terminal", "lines": "A C E", "borough": "M"}}, {"type": "Feature", "geometry": {"type": "Point", "coordinates": [-73.921479, 40.766779]}, "properties": {"name": "30 Av", "lines": "N W", "borough": "Q"}}, {"type": "Feature", "geometry": {"type": "Point", "coordinates": [-73.884655, 40.87975]}, "properties": {"name": "Mosholu Pkwy", "lines": "4", "borough": "Bx"}}, {"type": "Feature", "geometry": {"type": "Point", "coordinates": [-73.755405, 40.603995]}, "properties": {"name": "Far Rockaway-Mott Av", "lines": "A", "borough": "Q"}}, {"type": "Feature", "geometry": {"type": "Point", "coordinates": [-73.996786, 40.737335]}, "properties": {"name": "6 Av", "lines": "L", "borough": "M"}}, {"type": "Feature", "geometry": {"type": "Point", "coordinates": [-73.828121, 40.852462]}, "properties": {"name": "Pelham Bay Park", "lines": "6", "borough": "Bx"}}, {"type": "Feature", "geometry": {"type": "Point", "coordinates": [-73.976041, 40.751431]}, "properties": {"name": "Grand Central-42 St", "lines": "7", "borough": "M"}}, {"type": "Feature", "geometry": {"type": "Point", "coordinates": [-73.890549, 40.820948]}, "properties": {"name": "Hunts Point Av", "lines": "6", "borough": "Bx"}}, {"type": "Feature", "geometry": {"type": "Point", "coordinates": [-74.084087, 40.603117]}, "properties": {"name": "Grasmere", "lines": "SIR", "borough": "SI"}}, {"type": "Feature", "geometry": {"type": "Point", "coordinates": [-73.873785, 40.683194]}, "properties": {"name": "Crescent St", "lines": "J Z", "borough": "Bk"}}, {"type": "Feature", "geometry": {"type": "Point", "coordinates": [-73.832163, 40.684331]}, "properties": {"name": "111 St", "lines": "A", "borough": "Q"}}, {"type": "Feature", "geometry": {"type": "Point", "coordinates": [-73.939704, 40.847391]}, "properties": {"name": "175 St", "lines": "A", "borough": "M"}}, {"type": "Feature", "geometry": {"type": "Point", "coordinates": [-73.909831, 40.874561]}, "properties": {"name": "Marble Hill-225 St", "lines": "1", "borough": "M"}}, {"type": "Feature", "geometry": {"type": "Point", "coordinates": [-73.976218, 40.788644]}, "properties": {"name": "86 St", "lines": "1", "borough": "M"}}, {"type": "Feature", "geometry": {"type": "Point", "coordinates": [-73.860341, 40.888022]}, "properties": {"name": "225 St", "lines": "2 5", "borough": "Bx"}}, {"type": "Feature", "geometry": {"type": "Point", "coordinates": [-73.882017, 40.742454]}, "properties": {"name": "Elmhurst Av", "lines": "M R", "borough": "Q"}}, {"type": "Feature", "geometry": {"type": "Point", "coordinates": [-73.989951, 40.734673]}, "properties": {"name": "14 St-Union Sq", "lines": "4 5 6", "borough": "M"}}, {"type": "Feature", "geometry": {"type": "Point", "coordinates": [-73.944216, 40.824783]}, "properties": {"name": "145 St", "lines": "B D", "borough": "M"}}, {"type": "Feature", "geometry": {"type": "Point", "coordinates": [-73.961495, 40.655292]}, "properties": {"name": "Parkside Av", "lines": "Q", "borough": "Bk"}}, {"type": "Feature", "geometry": {"type": "Point", "coordinates": [-73.950466, 40.669847]}, "properties": {"name": "Nostrand Av", "lines": "3", "borough": "Bk"}}, {"type": "Feature", "geometry": {"type": "Point", "coordinates": [-73.869527, 40.749145]}, "properties": {"name": "Junction Blvd", "lines": "7", "borough": "Q"}}, {"type": "Feature", "geometry": {"type": "Point", "coordinates": [-74.028398, 40.622687]}, "properties": {"name": "86 St", "lines": "R", "borough": "Bk"}}, {"type": "Feature", "geometry": {"type": "Point", "coordinates": [-73.917791, 40.840075]}, "properties": {"name": "170 St", "lines": "4", "borough": "Bx"}}, {"type": "Feature", "geometry": {"type": "Point", "coordinates": [-73.917757, 40.816109]}, "properties": {"name": "3 Av-149 St", "lines": "2 5", "borough": "Bx"}}, {"type": "Feature", "geometry": {"type": "Point", "coordinates": [-73.918822, 40.864621]}, "properties": {"name": "207 St", "lines": "1", "borough": "M"}}, {"type": "Feature", "geometry": {"type": "Point", "coordinates": [-73.981929, 40.768247]}, "properties": {"name": "59 St-Columbus Circle", "lines": "1", "borough": "M"}}, {"type": "Feature", "geometry": {"type": "Point", "coordinates": [-73.815925, 40.608382]}, "properties": {"name": "Broad Channel", "lines": "A S", "borough": "Q"}}, {"type": "Feature", "geometry": {"type": "Point", "coordinates": [-73.965838, 40.683263]}, "properties": {"name": "Clinton-Washington Avs", "lines": "C", "borough": "Bk"}}, {"type": "Feature", "geometry": {"type": "Point", "coordinates": [-73.920786, 40.678822]}, "properties": {"name": "Ralph Av", "lines": "C", "borough": "Bk"}}, {"type": "Feature", "geometry": {"type": "Point", "coordinates": [-73.896403, 40.746325]}, "properties": {"name": "69 St", "lines": "7", "borough": "Q"}}, {"type": "Feature", "geometry": {"type": "Point", "coordinates": [-73.983765, 40.588841]}, "properties": {"name": "Bay 50 St", "lines": "D", "borough": "Bk"}}, {"type": "Feature", "geometry": {"type": "Point", "coordinates": [-73.869229, 40.733106]}, "properties": {"name": "Woodhaven Blvd", "lines": "M R", "borough": "Q"}}, {"type": "Feature", "geometry": {"type": "Point", "coordinates": [-74.251961, 40.512764]}, "properties": {"name": "Tottenville", "lines": "SIR", "borough": "SI"}}, {"type": "Feature", "geometry": {"type": "Point", "coordinates": [-73.904512, 40.679498]}, "properties": {"name": "Broadway Junction", "lines": "J Z", "borough": "Bk"}}, {"type": "Feature", "geometry": {"type": "Point", "coordinates": [-73.911586, 40.699814]}, "properties": {"name": "Myrtle-Wyckoff Avs", "lines": "L", "borough": "Bk"}}, {"type": "Feature", "geometry": {"type": "Point", "coordinates": [-73.940202, 40.750582]}, "properties": {"name": "Queensboro Plaza", "lines": "N W", "borough": "Q"}}, {"type": "Feature", "geometry": {"type": "Point", "coordinates": [-73.947408, 40.703869]}, "properties": {"name": "Lorimer St", "lines": "M J", "borough": "Bk"}}, {"type": "Feature", "geometry": {"type": "Point", "coordinates": [-74.109704, 40.578965]}, "properties": {"name": "Grant City", "lines": "SIR", "borough": "SI"}}, {"type": "Feature", "geometry": {"type": "Point", "coordinates": [-73.807969, 40.700486]}, "properties": {"name": "Sutphin Blvd-Archer Av-JFK Airport", "lines": "E J Z", "borough": "Q"}}, {"type": "Feature", "geometry": {"type": "Point", "coordinates": [-73.930997, 40.744587]}, "properties": {"name": "33 St-Rawson St", "lines": "7", "borough": "Q"}}, {"type": "Feature", "geometry": {"type": "Point", "coordinates": [-73.958161, 40.800603]}, "properties": {"name": "Cathedral Pkwy (110 St)", "lines": "C B", "borough": "M"}}, {"type": "Feature", "geometry": {"type": "Point", "coordinates": [-73.831008, 40.714441]}, "properties": {"name": "Kew Gardens-Union Tpke", "lines": "E F", "borough": "Q"}}, {"type": "Feature", "geometry": {"type": "Point", "coordinates": [-73.995657, 40.744081]}, "properties": {"name": "23 St", "lines": "1", "borough": "M"}}, {"type": "Feature", "geometry": {"type": "Point", "coordinates": [-73.985001, 40.688484]}, "properties": {"name": "Hoyt-Schermerhorn Sts", "lines": "A C G", "borough": "Bk"}}, {"type": "Feature", "geometry": {"type": "Point", "coordinates": [-73.990568, 40.735736]}, "properties": {"name": "14 St-Union Sq", "lines": "N Q R W", "borough": "M"}}, {"type": "Feature", "geometry": {"type": "Point", "coordinates": [-73.94077, 40.814229]}, "properties": {"name": "135 St", "lines": "2 3", "borough": "M"}}, {"type": "Feature", "geometry": {"type": "Point", "coordinates": [-73.985026, 40.61741]}, "properties": {"name": "20 Av", "lines": "N", "borough": "Bk"}}, {"type": "Feature", "geometry": {"type": "Point", "coordinates": [-73.93418, 40.859022]}, "properties": {"name": "190 St", "lines": "A", "borough": "M"}}, {"type": "Feature", "geometry": {"type": "Point", "coordinates": [-73.966839, 40.688089]}, "properties": {"name": "Clinton-Washington Avs", "lines": "G", "borough": "Bk"}}, {"type": "Feature", "geometry": {"type": "Point", "coordinates": [-73.907657, 40.808719]}, "properties": {"name": "E 143 St-St Mary's St", "lines": "6", "borough": "Bx"}}, {"type": "Feature", "geometry": {"type": "Point", "coordinates": [-73.916559, 40.68637]}, "properties": {"name": "Halsey St", "lines": "J", "borough": "Bk"}}, {"type": "Feature", "geometry": {"type": "Point", "coordinates": [-73.993753, 40.718267]}, "properties": {"name": "Grand St", "lines": "B D", "borough": "M"}}, {"type": "Feature", "geometry": {"type": "Point", "coordinates": [-73.97823, 40.592721]}, "properties": {"name": "86 St", "lines": "N", "borough": "Bk"}}, {"type": "Feature", "geometry": {"type": "Point", "coordinates": [-73.916327, 40.661453]}, "properties": {"name": "Saratoga Av", "lines": "3", "borough": "Bk"}}, {"type": "Feature", "geometry": {"type": "Point", "coordinates": [-74.151399, 40.551231]}, "properties": {"name": "Great Kills", "lines": "SIR", "borough": "SI"}}, {"type": "Feature", "geometry": {"type": "Point", "coordinates": [-73.989998, 40.693219]}, "properties": {"name": "Borough Hall", "lines": "2 3", "borough": "Bk"}}, {"type": "Feature", "geometry": {"type": "Point", "coordinates": [-73.90774, 40.702762]}, "properties": {"name": "Seneca Av", "lines": "M", "borough": "Q"}}, {"type": "Feature", "geometry": {"type": "Point", "coordinates": [-73.835592, 40.580903]}, "properties": {"name": "Rockaway Park-Beach 116 St", "lines": "A S", "borough": "Q"}}, {"type": "Feature", "geometry": {"type": "Point", "coordinates": [-73.93985, 40.707739]}, "properties": {"name": "Montrose Av", "lines": "L", "borough": "Bk"}}, {"type": "Feature", "geometry": {"type": "Point", "coordinates": [-73.91844, 40.833771]}, "properties": {"name": "167 St", "lines": "B D", "borough": "Bx"}}, {"type": "Feature", "geometry": {"type": "Point", "coordinates": [-73.884079, 40.666235]}, "properties": {"name": "New Lots Av", "lines": "3", "borough": "Bk"}}, {"type": "Feature", "geometry": {"type": "Point", "coordinates": [-74.217847, 40.52241]}, "properties": {"name": "Pleasant Plains", "lines": "SIR", "borough": "SI"}}, {"type": "Feature", "geometry": {"type": "Point", "coordinates": [-73.838591, 40.878663]}, "properties": {"name": "Baychester Av", "lines": "5", "borough": "Bx"}}, {"type": "Feature", "geometry": {"type": "Point", "coordinates": [-73.949046, 40.694568]}, "properties": {"name": "Myrtle-Willoughby Avs", "lines": "G", "borough": "Bk"}}, {"type": "Feature", "geometry": {"type": "Point", "coordinates": [-73.887734, 40.837288]}, "properties": {"name": "174 St", "lines": "2 5", "borough": "Bx"}}, {"type": "Feature", "geometry": {"type": "Point", "coordinates": [-73.946, 40.747846]}, "properties": {"name": "Court Sq-23 St", "lines": "E F", "borough": "Q"}}, {"type": "Feature", "geometry": {"type": "Point", "coordinates": [-73.901034, 40.862803]}, "properties": {"name": "Fordham Rd", "lines": "4", "borough": "Bx"}}, {"type": "Feature", "geometry": {"type": "Point", "coordinates": [-73.972143, 40.781433]}, "properties": {"name": "81 St-Museum of Natural History", "lines": "C B", "borough": "M"}}, {"type": "Feature", "geometry": {"type": "Point", "coordinates": [-74.073643, 40.643748]}, "properties": {"name": "St George", "lines": "SIR", "borough": "SI"}}, {"type": "Feature", "geometry": {"type": "Point", "coordinates": [-74.00046, 40.718383]}, "properties": {"name": "Canal St", "lines": "N Q", "borough": "M"}}, {"type": "Feature", "geometry": {"type": "Point", "coordinates": [-73.890358, 40.67271]}, "properties": {"name": "Van Siclen Av", "lines": "C", "borough": "Bk"}}, {"type": "Feature", "geometry": {"type": "Point", "coordinates": [-73.94489, 40.834041]}, "properties": {"name": "157 St", "lines": "1", "borough": "M"}}, {"type": "Feature", "geometry": {"type": "Point", "coordinates": [-73.836322, 40.843863]}, "properties": {"name": "Middletown Rd", "lines": "6", "borough": "Bx"}}, {"type": "Feature", "geometry": {"type": "Point", "coordinates": [-73.992872, 40.665414]}, "properties": {"name": "Prospect Av", "lines": "R", "borough": "Bk"}}, {"type": "Feature", "geometry": {"type": "Point", "coordinates": [-74.009781, 40.712582]}, "properties": {"name": "World Trade Center", "lines": "E", "borough": "M"}}, {"type": "Feature", "geometry": {"type": "Point", "coordinates": [-73.957624, 40.674772]}, "properties": {"name": "Park Pl", "lines": "S", "borough": "Bk"}}, {"type": "Feature", "geometry": {"type": "Point", "coordinates": [-73.962793, 40.635082]}, "properties": {"name": "Newkirk Plaza", "lines": "B Q", "borough": "Bk"}}, {"type": "Feature", "geometry": {"type": "Point", "coordinates": [-73.92074, 40.756879]}, "properties": {"name": "Steinway St", "lines": "M R", "borough": "Q"}}, {"type": "Feature", "geometry": {"type": "Point", "coordinates": [-73.803326, 40.707564]}, "properties": {"name": "Parsons Blvd", "lines": "F", "borough": "Q"}}, {"type": "Feature", "geometry": {"type": "Point", "coordinates": [-74.002906, 40.733422]}, "properties": {"name": "Christopher St-Stonewall", "lines": "1", "borough": "M"}}, {"type": "Feature", "geometry": {"type": "Point", "coordinates": [-74.014065, 40.704817]}, "properties": {"name": "Bowling Green", "lines": "4 5", "borough": "M"}}, {"type": "Feature", "geometry": {"type": "Point", "coordinates": [-73.867618, 40.831509]}, "properties": {"name": "St Lawrence Av", "lines": "6", "borough": "Bx"}}, {"type": "Feature", "geometry": {"type": "Point", "coordinates": [-73.958372, 40.815581]}, "properties": {"name": "125 St", "lines": "1", "borough": "M"}}, {"type": "Feature", "geometry": {"type": "Point", "coordinates": [-73.967258, 40.76266]}, "properties": {"name": "Lexington Av/59 St", "lines": "N R W", "borough": "M"}}, {"type": "Feature", "geometry": {"type": "Point", "coordinates": [-73.986751, 40.701397]}, "properties": {"name": "York St", "lines": "F", "borough": "Bk"}}, {"type": "Feature", "geometry": {"type": "Point", "coordinates": [-73.976127, 40.625322]}, "properties": {"name": "Avenue I", "lines": "F", "borough": "Bk"}}, {"type": "Feature", "geometry": {"type": "Point", "coordinates": [-73.995476, 40.631435]}, "properties": {"name": "55 St", "lines": "D", "borough": "Bk"}}, {"type": "Feature", "geometry": {"type": "Point", "coordinates": [-73.768175, 40.595398]}, "properties": {"name": "Beach 36 St", "lines": "A", "borough": "Q"}}, {"type": "Feature", "geometry": {"type": "Point", "coordinates": [-74.011056, 40.706476]}, "properties": {"name": "Broad St", "lines": "J Z", "borough": "M"}}, {"type": "Feature", "geometry": {"type": "Point", "coordinates": [-73.95107, 40.785672]}, "properties": {"name": "96 St", "lines": "6", "borough": "M"}}, {"type": "Feature", "geometry": {"type": "Point", "coordinates": [-73.98795, 40.749567]}, "properties": {"name": "34 St-Herald Sq", "lines": "N Q R W", "borough": "M"}}, {"type": "Feature", "geometry": {"type": "Point", "coordinates": [-73.979189, 40.752769]}, "properties": {"name": "Grand Central-42 St", "lines": "S", "borough": "M"}}, {"type": "Feature", "geometry": {"type": "Point", "coordinates": [-74.013664, 40.702068]}, "properties": {"name": "South Ferry", "lines": "1", "borough": "M"}}, {"type": "Feature", "geometry": {"type": "Point", "coordinates": [-73.900741, 40.856093]}, "properties": {"name": "182-183 Sts", "lines": "B D", "borough": "Bx"}}, {"type": "Feature", "geometry": {"type": "Point", "coordinates": [-74.004131, 40.713065]}, "properties": {"name": "Brooklyn Bridge-City Hall", "lines": "4 5 6", "borough": "M"}}, {"type": "Feature", "geometry": {"type": "Point", "coordinates": [-73.947649, 40.817894]}, "properties": {"name": "135 St", "lines": "C B", "borough": "M"}}, {"type": "Feature", "geometry": {"type": "Point", "coordinates": [-73.867615, 40.857192]}, "properties": {"name": "Pelham Pkwy", "lines": "2 5", "borough": "Bx"}}, {"type": "Feature", "geometry": {"type": "Point", "coordinates": [-73.981848, 40.611815]}, "properties": {"name": "Bay Pkwy", "lines": "N", "borough": "Bk"}}, {"type": "Feature", "geometry": {"type": "Point", "coordinates": [-73.945495, 40.807754]}, "properties": {"name": "125 St", "lines": "2 3", "borough": "M"}}, {"type": "Feature", "geometry": {"type": "Point", "coordinates": [-73.994791, 40.63626]}, "properties": {"name": "50 St", "lines": "D", "borough": "Bk"}}, {"type": "Feature", "geometry": {"type": "Point", "coordinates": [-74.030876, 40.616622]}, "properties": {"name": "Bay Ridge-95 St", "lines": "R", "borough": "Bk"}}, {"type": "Feature", "geometry": {"type": "Point", "coordinates": [-73.951277, 40.724635]}, "properties": {"name": "Nassau Av", "lines": "G", "borough": "Bk"}}, {"type": "Feature", "geometry": {"type": "Point", "coordinates": [-74.003739, 40.726227]}, "properties": {"name": "Spring St", "lines": "C E", "borough": "M"}}, {"type": "Feature", "geometry": {"type": "Point", "coordinates": [-73.914685, 40.844434]}, "properties": {"name": "Mt Eden Av", "lines": "4", "borough": "Bx"}}, {"type": "Feature", "geometry": {"type": "Point", "coordinates": [-73.939561, 40.840719]}, "properties": {"name": "168 St", "lines": "A C", "borough": "M"}}, {"type": "Feature", "geometry": {"type": "Point", "coordinates": [-73.801109, 40.702147]}, "properties": {"name": "Jamaica Center-Parsons/Archer", "lines": "E J Z", "borough": "Q"}}, {"type": "Feature", "geometry": {"type": "Point", "coordinates": [-73.925536, 40.860531]}, "properties": {"name": "Dyckman St", "lines": "1", "borough": "M"}}, {"type": "Feature", "geometry": {"type": "Point", "coordinates": [-74.014034, 40.645069]}, "properties": {"name": "53 St", "lines": "R", "borough": "Bk"}}, {"type": "Feature", "geometry": {"type": "Point", "coordinates": [-73.858992, 40.679371]}, "properties": {"name": "80 St", "lines": "A", "borough": "Q"}}, {"type": "Feature", "geometry": {"type": "Point", "coordinates": [-73.911946, 40.67834]}, "properties": {"name": "Rockaway Av", "lines": "C", "borough": "Bk"}}, {"type": "Feature", "geometry": {"type": "Point", "coordinates": [-73.891338, 40.746644]}, "properties": {"name": "Jackson Hts-Roosevelt Av", "lines": "E F M R", "borough": "Q"}}, {"type": "Feature", "geometry": {"type": "Point", "coordinates": [-73.957734, 40.60867]}, "properties": {"name": "Kings Hwy", "lines": "B Q", "borough": "Bk"}}, {"type": "Feature", "geometry": {"type": "Point", "coordinates": [-73.955589, 40.779492]}, "properties": {"name": "86 St", "lines": "4 5 6", "borough": "M"}}, {"type": "Feature", "geometry": {"type": "Point", "coordinates": [-73.917843, 40.770258]}, "properties": {"name": "Astoria Blvd", "lines": "N W", "borough": "Q"}}, {"type": "Feature", "geometry": {"type": "Point", "coordinates": [-73.891865, 40.829993]}, "properties": {"name": "Freeman St", "lines": "2 5", "borough": "Bx"}}, {"type": "Feature", "geometry": {"type": "Point", "coordinates": [-73.878855, 40.874811]}, "properties": {"name": "Norwood-205 St", "lines": "D", "borough": "Bx"}}, {"type": "Feature", "geometry": {"type": "Point", "coordinates": [-73.8627, 40.749865]}, "properties": {"name": "103 St-Corona Plaza", "lines": "7", "borough": "Q"}}, {"type": "Feature", "geometry": {"type": "Point", "coordinates": [-73.9502, 40.656652]}, "properties": {"name": "Winthrop St", "lines": "2 5", "borough": "Bk"}}, {"type": "Feature", "geometry": {"type": "Point", "coordinates": [-73.989779, 40.670272]}, "properties": {"name": "4 Av-9 St", "lines": "F G", "borough": "Bk"}}, {"type": "Feature", "geometry": {"type": "Point", "coordinates": [-73.975776, 40.650782]}, "properties": {"name": "Fort Hamilton Pkwy", "lines": "F G", "borough": "Bk"}}, {"type": "Feature", "geometry": {"type": "Point", "coordinates": [-73.97425, 40.58962]}, "properties": {"name": "Avenue X", "lines": "F", "borough": "Bk"}}, {"type": "Feature", "geometry": {"type": "Point", "coordinates": [-73.857473, 40.893193]}, "properties": {"name": "233 St", "lines": "2 5", "borough": "Bx"}}, {"type": "Feature", "geometry": {"type": "Point", "coordinates": [-73.918425, 40.703811]}, "properties": {"name": "DeKalb Av", "lines": "L", "borough": "Bk"}}, {"type": "Feature", "geometry": {"type": "Point", "coordinates": [-73.899485, 40.650573]}, "properties": {"name": "East 105 St", "lines": "L", "borough": "Bk"}}, {"type": "Feature", "geometry": {"type": "Point", "coordinates": [-73.953581, 40.742626]}, "properties": {"name": "Vernon Blvd-Jackson Av", "lines": "7", "borough": "Q"}}, {"type": "Feature", "geometry": {"type": "Point", "coordinates": [-73.937594, 40.804138]}, "properties": {"name": "125 St", "lines": "4 5 6", "borough": "M"}}, {"type": "Feature", "geometry": {"type": "Point", "coordinates": [-74.103338, 40.583591]}, "properties": {"name": "Jefferson Av", "lines": "SIR", "borough": "SI"}}, {"type": "Feature", "geometry": {"type": "Point", "coordinates": [-74.009266, 40.715478]}, "properties": {"name": "Chambers St", "lines": "1 2 3", "borough": "M"}}, {"type": "Feature", "geometry": {"type": "Point", "coordinates": [-73.825798, 40.685951]}, "properties": {"name": "Ozone Park-Lefferts Blvd", "lines": "A", "borough": "Q"}}, {"type": "Feature", "geometry": {"type": "Point", "coordinates": [-74.001736, 40.607954]}, "properties": {"name": "18 Av", "lines": "D", "borough": "Bk"}}, {"type": "Feature", "geometry": {"type": "Point", "coordinates": [-73.993915, 40.72028]}, "properties": {"name": "Bowery", "lines": "J Z", "borough": "M"}}, {"type": "Feature", "geometry": {"type": "Point", "coordinates": [-73.988302, 40.670847]}, "properties": {"name": "4 Av-9 St", "lines": "R", "borough": "Bk"}}, {"type": "Feature", "geometry": {"type": "Point", "coordinates": [-73.958131, 40.670682]}, "properties": {"name": "Franklin Av-Medgar Evers College", "lines": "2 3 4 5", "borough": "Bk"}}, {"type": "Feature", "geometry": {"type": "Point", "coordinates": [-73.99107, 40.730054]}, "properties": {"name": "Astor Pl", "lines": "6", "borough": "M"}}, {"type": "Feature", "geometry": {"type": "Point", "coordinates": [-73.962982, 40.650527]}, "properties": {"name": "Church Av", "lines": "B Q", "borough": "Bk"}}, {"type": "Feature", "geometry": {"type": "Point", "coordinates": [-73.991777, 40.6941]}, "properties": {"name": "Court St", "lines": "R", "borough": "Bk"}}, {"type": "Feature", "geometry": {"type": "Point", "coordinates": [-73.910456, 40.682893]}, "properties": {"name": "Chauncey St", "lines": "J Z", "borough": "Bk"}}, {"type": "Feature", "geometry": {"type": "Point", "coordinates": [-73.902984, 40.74563]}, "properties": {"name": "61 St-Woodside", "lines": "7", "borough": "Q"}}, {"type": "Feature", "geometry": {"type": "Point", "coordinates": [-73.968501, 40.576312]}, "properties": {"name": "Ocean Pkwy", "lines": "Q", "borough": "Bk"}}, {"type": "Feature", "geometry": {"type": "Point", "coordinates": [-73.880039, 40.68141]}, "properties": {"name": "Norwood Av", "lines": "J Z", "borough": "Bk"}}, {"type": "Feature", "geometry": {"type": "Point", "coordinates": [-73.90324, 40.678856]}, "properties": {"name": "Broadway Junction", "lines": "L", "borough": "Bk"}}, {"type": "Feature", "geometry": {"type": "Point", "coordinates": [-73.904834, 40.878856]}, "properties": {"name": "231 St", "lines": "1", "borough": "Bx"}}, {"type": "Feature", "geometry": {"type": "Point", "coordinates": [-73.861604, 40.729846]}, "properties": {"name": "63 Dr-Rego Park", "lines": "M R", "borough": "Q"}}, {"type": "Feature", "geometry": {"type": "Point", "coordinates": [-73.993391, 40.752287]}, "properties": {"name": "34 St-Penn Station", "lines": "A C E", "borough": "M"}}, {"type": "Feature", "geometry": {"type": "Point", "coordinates": [-73.813641, 40.588034]}, "properties": {"name": "Beach 90 St", "lines": "A S", "borough": "Q"}}, {"type": "Feature", "geometry": {"type": "Point", "coordinates": [-73.983849, 40.761728]}, "properties": {"name": "50 St", "lines": "1", "borough": "M"}}, {"type": "Feature", "geometry": {"type": "Point", "coordinates": [-73.972323, 40.793919]}, "properties": {"name": "96 St", "lines": "1 2 3", "borough": "M"}}, {"type": "Feature", "geometry": {"type": "Point", "coordinates": [-73.956848, 40.68138]}, "properties": {"name": "Franklin Av", "lines": "C", "borough": "Bk"}}, {"type": "Feature", "geometry": {"type": "Point", "coordinates": [-73.97192, 40.757107]}, "properties": {"name": "51 St", "lines": "6", "borough": "M"}}, {"type": "Feature", "geometry": {"type": "Point", "coordinates": [-74.011719, 40.635064]}, "properties": {"name": "8 Av", "lines": "N", "borough": "Bk"}}, {"type": "Feature", "geometry": {"type": "Point", "coordinates": [-74.229141, 40.519631]}, "properties": {"name": "Richmond Valley", "lines": "SIR", "borough": "SI"}}, {"type": "Feature", "geometry": {"type": "Point", "coordinates": [-73.977666, 40.684359]}, "properties": {"name": "Atlantic Av-Barclays Ctr", "lines": "2 3 4 5", "borough": "Bk"}}, {"type": "Feature", "geometry": {"type": "Point", "coordinates": [-73.947642, 40.632836]}, "properties": {"name": "Flatbush Av-Brooklyn College", "lines": "2 5", "borough": "Bk"}}, {"type": "Feature", "geometry": {"type": "Point", "coordinates": [-73.878751, 40.886037]}, "properties": {"name": "Woodlawn", "lines": "4", "borough": "Bx"}}, {"type": "Feature", "geometry": {"type": "Point", "coordinates": [-73.987823, 40.749719]}, "properties": {"name": "34 St-Herald Sq", "lines": "B D F M", "borough": "M"}}, {"type": "Feature", "geometry": {"type": "Point", "coordinates": [-73.860495, 40.854364]}, "properties": {"name": "Morris Park", "lines": "5", "borough": "Bx"}}, {"type": "Feature", "geometry": {"type": "Point", "coordinates": [-74.002578, 40.739777]}, "properties": {"name": "8 Av", "lines": "L", "borough": "M"}}, {"type": "Feature", "geometry": {"type": "Point", "coordinates": [-73.940202, 40.750582]}, "properties": {"name": "Queensboro Plaza", "lines": "7", "borough": "Q"}}, {"type": "Feature", "geometry": {"type": "Point", "coordinates": [-73.886283, 40.826525]}, "properties": {"name": "Whitlock Av", "lines": "6", "borough": "Bx"}}, {"type": "Feature", "geometry": {"type": "Point", "coordinates": [-73.941126, 40.70026]}, "properties": {"name": "Flushing Av", "lines": "M J", "borough": "Bk"}}, {"type": "Feature", "geometry": {"type": "Point", "coordinates": [-74.071402, 40.621319]}, "properties": {"name": "Clifton", "lines": "SIR", "borough": "SI"}}, {"type": "Feature", "geometry": {"type": "Point", "coordinates": [-74.008811, 40.713051]}, "properties": {"name": "Park Place", "lines": "2 3", "borough": "M"}}, {"type": "Feature", "geometry": {"type": "Point", "coordinates": [-73.907807, 40.81649]}, "properties": {"name": "Jackson Av", "lines": "2 5", "borough": "Bx"}}, {"type": "Feature", "geometry": {"type": "Point", "coordinates": [-73.905227, 40.85041]}, "properties": {"name": "Tremont Av", "lines": "B D", "borough": "Bx"}}, {"type": "Feature", "geometry": {"type": "Point", "coordinates": [-73.956872, 40.717304]}, "properties": {"name": "Bedford Av", "lines": "L", "borough": "Bk"}}, {"type": "Feature", "geometry": {"type": "Point", "coordinates": [-73.95326, 40.759145]}, "properties": {"name": "Roosevelt Island", "lines": "M", "borough": "M"}}, {"type": "Feature", "geometry": {"type": "Point", "coordinates": [-73.851576, 40.693879]}, "properties": {"name": "Woodhaven Blvd", "lines": "J Z", "borough": "Q"}}, {"type": "Feature", "geometry": {"type": "Point", "coordinates": [-74.16457, 40.544601]}, "properties": {"name": "Eltingville", "lines": "SIR", "borough": "SI"}}, {"type": "Feature", "geometry": {"type": "Point", "coordinates": [-73.989938, 40.723402]}, "properties": {"name": "2 Av", "lines": "F", "borough": "M"}}, {"type": "Feature", "geometry": {"type": "Point", "coordinates": [-73.908946, 40.662549]}, "properties": {"name": "Rockaway Av", "lines": "3", "borough": "Bk"}}]}